CCSDS_OMM_VERS = 2.0
CREATION_DATE  = 
ORIGINATOR     = 

OBJECT_NAME    = COSMOS 2058
OBJECT_ID      = 1990-010A
CENTER_NAME    = EARTH
REF_FRAME      = TEME
TIME_SYSTEM    = UTC
MEAN_ELEMENT_THEORY = SGP/SGP4

EPOCH          = 2026-03-21T08:48:06.569280
MEAN_MOTION    = 15.11418840
ECCENTRICITY   = .0007813
INCLINATION    = 82.4679
RA_OF_ASC_NODE = 35.9208
ARG_OF_PERICENTER = 301.9292
MEAN_ANOMALY   = 58.1178

EPHEMERIS_TYPE = 0
CLASSIFICATION_TYPE = U
NORAD_CAT_ID   = 20465
ELEMENT_SET_NO = 999
REV_AT_EPOCH   = 94400
BSTAR          = .29910914E-3
MEAN_MOTION_DOT = .5083E-4
MEAN_MOTION_DDOT = 0

CCSDS_OMM_VERS = 2.0
CREATION_DATE  = 
ORIGINATOR     = 

OBJECT_NAME    = SL-14 R/B
OBJECT_ID      = 1990-010B
CENTER_NAME    = EARTH
REF_FRAME      = TEME
TIME_SYSTEM    = UTC
MEAN_ELEMENT_THEORY = SGP/SGP4

EPOCH          = 2026-03-21T13:22:44.563008
MEAN_MOTION    = 14.83579310
ECCENTRICITY   = .00183474
INCLINATION    = 82.4988
RA_OF_ASC_NODE = 256.2374
ARG_OF_PERICENTER = 260.1059
MEAN_ANOMALY   = 99.8085

EPHEMERIS_TYPE = 0
CLASSIFICATION_TYPE = U
NORAD_CAT_ID   = 20466
ELEMENT_SET_NO = 999
REV_AT_EPOCH   = 93024
BSTAR          = .54012367E-4
MEAN_MOTION_DOT = .47E-5
MEAN_MOTION_DDOT = 0

CCSDS_OMM_VERS = 2.0
CREATION_DATE  = 
ORIGINATOR     = 

OBJECT_NAME    = SL-14 R/B
OBJECT_ID      = 1990-018B
CENTER_NAME    = EARTH
REF_FRAME      = TEME
TIME_SYSTEM    = UTC
MEAN_ELEMENT_THEORY = SGP/SGP4

EPOCH          = 2026-03-21T09:13:11.348832
MEAN_MOTION    = 14.82156652
ECCENTRICITY   = .00173945
INCLINATION    = 82.5225
RA_OF_ASC_NODE = 212.1602
ARG_OF_PERICENTER = 56.5331
MEAN_ANOMALY   = 303.7543

EPHEMERIS_TYPE = 0
CLASSIFICATION_TYPE = U
NORAD_CAT_ID   = 20511
ELEMENT_SET_NO = 999
REV_AT_EPOCH   = 92431
BSTAR          = .56925645E-4
MEAN_MOTION_DOT = .478E-5
MEAN_MOTION_DDOT = 0

CCSDS_OMM_VERS = 2.0
CREATION_DATE  = 
ORIGINATOR     = 

OBJECT_NAME    = HST
OBJECT_ID      = 1990-037B
CENTER_NAME    = EARTH
REF_FRAME      = TEME
TIME_SYSTEM    = UTC
MEAN_ELEMENT_THEORY = SGP/SGP4

EPOCH          = 2026-03-21T08:39:32.066784
MEAN_MOTION    = 15.29656769
ECCENTRICITY   = .0001508
INCLINATION    = 28.4723
RA_OF_ASC_NODE = 320.3734
ARG_OF_PERICENTER = 254.4607
MEAN_ANOMALY   = 105.5822

EPHEMERIS_TYPE = 0
CLASSIFICATION_TYPE = U
NORAD_CAT_ID   = 20580
ELEMENT_SET_NO = 999
REV_AT_EPOCH   = 77510
BSTAR          = .28926578E-3
MEAN_MOTION_DOT = .8789E-4
MEAN_MOTION_DDOT = 0

CCSDS_OMM_VERS = 2.0
CREATION_DATE  = 
ORIGINATOR     = 

OBJECT_NAME    = SL-16 R/B
OBJECT_ID      = 1990-046B
CENTER_NAME    = EARTH
REF_FRAME      = TEME
TIME_SYSTEM    = UTC
MEAN_ELEMENT_THEORY = SGP/SGP4

EPOCH          = 2026-03-21T13:45:44.129952
MEAN_MOTION    = 14.15012144
ECCENTRICITY   = .00162281
INCLINATION    = 70.9954
RA_OF_ASC_NODE = 272.9542
ARG_OF_PERICENTER = 283.9588
MEAN_ANOMALY   = 75.9730

EPHEMERIS_TYPE = 0
CLASSIFICATION_TYPE = U
NORAD_CAT_ID   = 20625
ELEMENT_SET_NO = 999
REV_AT_EPOCH   = 85007
BSTAR          = .71027095E-4
MEAN_MOTION_DOT = .9E-6
MEAN_MOTION_DDOT = 0

CCSDS_OMM_VERS = 2.0
CREATION_DATE  = 
ORIGINATOR     = 

OBJECT_NAME    = COSMOS 2084
OBJECT_ID      = 1990-055A
CENTER_NAME    = EARTH
REF_FRAME      = TEME
TIME_SYSTEM    = UTC
MEAN_ELEMENT_THEORY = SGP/SGP4

EPOCH          = 2026-03-21T14:38:13.743456
MEAN_MOTION    = 15.05712503
ECCENTRICITY   = .00152715
INCLINATION    = 62.7887
RA_OF_ASC_NODE = 294.9204
ARG_OF_PERICENTER = 193.3390
MEAN_ANOMALY   = 166.7309

EPHEMERIS_TYPE = 0
CLASSIFICATION_TYPE = U
NORAD_CAT_ID   = 20663
ELEMENT_SET_NO = 999
REV_AT_EPOCH   = 93811
BSTAR          = .16242564E-3
MEAN_MOTION_DOT = .2163E-4
MEAN_MOTION_DDOT = 0

CCSDS_OMM_VERS = 2.0
CREATION_DATE  = 
ORIGINATOR     = 

OBJECT_NAME    = SL-6 R/B(2)
OBJECT_ID      = 1990-055D
CENTER_NAME    = EARTH
REF_FRAME      = TEME
TIME_SYSTEM    = UTC
MEAN_ELEMENT_THEORY = SGP/SGP4

EPOCH          = 2026-03-21T13:00:59.331168
MEAN_MOTION    = 15.03649888
ECCENTRICITY   = .00267228
INCLINATION    = 62.7831
RA_OF_ASC_NODE = 213.5409
ARG_OF_PERICENTER = 349.8159
MEAN_ANOMALY   = 10.2396

EPHEMERIS_TYPE = 0
CLASSIFICATION_TYPE = U
NORAD_CAT_ID   = 20666
ELEMENT_SET_NO = 999
REV_AT_EPOCH   = 93997
BSTAR          = .18545532E-3
MEAN_MOTION_DOT = .2368E-4
MEAN_MOTION_DDOT = 0

CCSDS_OMM_VERS = 2.0
CREATION_DATE  = 
ORIGINATOR     = 

OBJECT_NAME    = SL-8 R/B
OBJECT_ID      = 1990-078B
CENTER_NAME    = EARTH
REF_FRAME      = TEME
TIME_SYSTEM    = UTC
MEAN_ELEMENT_THEORY = SGP/SGP4

EPOCH          = 2026-03-21T12:50:16.459872
MEAN_MOTION    = 14.89421495
ECCENTRICITY   = .03598073
INCLINATION    = 82.9016
RA_OF_ASC_NODE = 240.6523
ARG_OF_PERICENTER = 334.0928
MEAN_ANOMALY   = 24.2647

EPHEMERIS_TYPE = 0
CLASSIFICATION_TYPE = U
NORAD_CAT_ID   = 20775
ELEMENT_SET_NO = 999
REV_AT_EPOCH   = 81106
BSTAR          = .5889135E-3
MEAN_MOTION_DOT = .19905E-3
MEAN_MOTION_DDOT = 0

CCSDS_OMM_VERS = 2.0
CREATION_DATE  = 
ORIGINATOR     = 

OBJECT_NAME    = SL-8 R/B
OBJECT_ID      = 1991-006B
CENTER_NAME    = EARTH
REF_FRAME      = TEME
TIME_SYSTEM    = UTC
MEAN_ELEMENT_THEORY = SGP/SGP4

EPOCH          = 2026-03-21T15:07:01.393536
MEAN_MOTION    = 13.77495911
ECCENTRICITY   = .00223312
INCLINATION    = 82.9458
RA_OF_ASC_NODE = 161.1694
ARG_OF_PERICENTER = 5.5393
MEAN_ANOMALY   = 157.2214

EPHEMERIS_TYPE = 0
CLASSIFICATION_TYPE = U
NORAD_CAT_ID   = 21088
ELEMENT_SET_NO = 999
REV_AT_EPOCH   = 76571
BSTAR          = .86595748E-4
MEAN_MOTION_DOT = .102E-5
MEAN_MOTION_DDOT = 0

CCSDS_OMM_VERS = 2.0
CREATION_DATE  = 
ORIGINATOR     = 

OBJECT_NAME    = OKEAN-3
OBJECT_ID      = 1991-039A
CENTER_NAME    = EARTH
REF_FRAME      = TEME
TIME_SYSTEM    = UTC
MEAN_ELEMENT_THEORY = SGP/SGP4

EPOCH          = 2026-03-21T09:09:56.360448
MEAN_MOTION    = 15.04877631
ECCENTRICITY   = .00127335
INCLINATION    = 82.5182
RA_OF_ASC_NODE = 325.5173
ARG_OF_PERICENTER = 293.2891
MEAN_ANOMALY   = 66.6995

EPHEMERIS_TYPE = 0
CLASSIFICATION_TYPE = U
NORAD_CAT_ID   = 21397
ELEMENT_SET_NO = 999
REV_AT_EPOCH   = 86679
BSTAR          = .18072196E-3
MEAN_MOTION_DOT = .2586E-4
MEAN_MOTION_DDOT = 0

CCSDS_OMM_VERS = 2.0
CREATION_DATE  = 
ORIGINATOR     = 

OBJECT_NAME    = COSMOS 2151
OBJECT_ID      = 1991-042A
CENTER_NAME    = EARTH
REF_FRAME      = TEME
TIME_SYSTEM    = UTC
MEAN_ELEMENT_THEORY = SGP/SGP4

EPOCH          = 2026-03-21T13:21:13.980384
MEAN_MOTION    = 15.00152264
ECCENTRICITY   = .00131692
INCLINATION    = 82.4936
RA_OF_ASC_NODE = 72.2254
ARG_OF_PERICENTER = 27.0380
MEAN_ANOMALY   = 333.1527

EPHEMERIS_TYPE = 0
CLASSIFICATION_TYPE = U
NORAD_CAT_ID   = 21422
ELEMENT_SET_NO = 999
REV_AT_EPOCH   = 86497
BSTAR          = .14596973E-3
MEAN_MOTION_DOT = .1851E-4
MEAN_MOTION_DDOT = 0

CCSDS_OMM_VERS = 2.0
CREATION_DATE  = 
ORIGINATOR     = 

OBJECT_NAME    = SL-14 R/B
OBJECT_ID      = 1991-042B
CENTER_NAME    = EARTH
REF_FRAME      = TEME
TIME_SYSTEM    = UTC
MEAN_ELEMENT_THEORY = SGP/SGP4

EPOCH          = 2026-03-21T15:24:49.487616
MEAN_MOTION    = 14.81841524
ECCENTRICITY   = .00165928
INCLINATION    = 82.4944
RA_OF_ASC_NODE = 208.9754
ARG_OF_PERICENTER = 197.1917
MEAN_ANOMALY   = 162.8738

EPHEMERIS_TYPE = 0
CLASSIFICATION_TYPE = U
NORAD_CAT_ID   = 21423
ELEMENT_SET_NO = 999
REV_AT_EPOCH   = 85484
BSTAR          = .60081695E-4
MEAN_MOTION_DOT = .499E-5
MEAN_MOTION_DDOT = 0

